FENGYUN 1C DEB          
1 31326U 99025BQE 17345.39936763  .00001253  00000-0  60118-3 0  9996
2 31326  99.0438  56.4555 0059155 193.1743 166.7890 14.19928103549084
